{
    "links": {
        "self": "http://www.neowsapp.com/rest/v1/neo/3661499?api_key=iIulBulltgU6a56xZRHN4H3l9WmuAYTsLGpBGhQ2"
    },
    "id": "3661499",
    "neo_reference_id": "3661499",
    "name": "(2014 CJ13)",
    "designation": "2014 CJ13",
    "nasa_jpl_url": "http://ssd.jpl.nasa.gov/sbdb.cgi?sstr=3661499",
    "absolute_magnitude_h": 23.1,
    "estimated_diameter": {
        "kilometers": {
            "estimated_diameter_min": 0.063760979,
            "estimated_diameter_max": 0.1425738833
        },
        "meters": {
            "estimated_diameter_min": 63.7609789875,
            "estimated_diameter_max": 142.5738833281
        },
        "miles": {
            "estimated_diameter_min": 0.0396192233,
            "estimated_diameter_max": 0.0885912765
        },
        "feet": {
            "estimated_diameter_min": 209.1895703015,
            "estimated_diameter_max": 467.7620993781
        }
    },
    "is_potentially_hazardous_asteroid": false,
    "close_approach_data": [
        {
            "close_approach_date": "2014-02-09",
            "close_approach_date_full": "2014-Feb-09 19:34",
            "epoch_date_close_approach": 1391974440000,
            "relative_velocity": {
                "kilometers_per_second": "19.6568450541",
                "kilometers_per_hour": "70764.6421947578",
                "miles_per_hour": "43970.3967015149"
            },
            "miss_distance": {
                "astronomical": "0.0770036907",
                "lunar": "29.9544356823",
                "kilometers": "11519588.110858809",
                "miles": "7157940.1339932042"
            },
            "orbiting_body": "Earth"
        }
    ],
    "orbital_data": {
        "orbit_id": "9",
        "orbit_determination_date": "2017-04-06 08:42:31",
        "first_observation_date": "2014-02-10",
        "last_observation_date": "2014-02-26",
        "data_arc_in_days": 16,
        "observations_used": 45,
        "orbit_uncertainty": "8",
        "minimum_orbit_intersection": ".0688728",
        "jupiter_tisserand_invariant": "4.347",
        "epoch_osculation": "2456701.5",
        "eccentricity": ".2906866786606549",
        "semi_major_axis": "1.477086575817832",
        "inclination": "36.05509406140867",
        "ascending_node_longitude": "322.3424194011347",
        "orbital_period": "655.7032762156961",
        "perihelion_distance": "1.047717184999107",
        "perihelion_argument": "164.7325537756628",
        "aphelion_distance": "1.906455966636557",
        "perihelion_time": "2456683.306045723325",
        "mean_anomaly": "9.989005358345063",
        "mean_motion": ".549028826083792",
        "equinox": "J2000",
        "orbit_class": {
            "orbit_class_type": "AMO",
            "orbit_class_description": "Near-Earth asteroid orbits similar to that of 1221 Amor",
            "orbit_class_range": "1.017 AU < q (perihelion) < 1.3 AU"
        }
    },
    "is_sentry_object": false
}